CCSDS_OEM_VERS = 1.0
CREATION_DATE  = 2017-05-11T11:30:53
ORIGINATOR     = GMAT USER

META_START
OBJECT_NAME          = MOPSSat_alt_35785_km_RAAN_180_016
OBJECT_ID            = SatId
CENTER_NAME          = Earth
REF_FRAME            = EME2000
TIME_SYSTEM          = UTC
START_TIME           = 2017-01-01T00:00:00.000
USEABLE_START_TIME   = 2017-01-01T00:00:00.000
USEABLE_STOP_TIME    = 2017-01-02T00:00:00.000
STOP_TIME            = 2017-01-02T00:00:00.000
INTERPOLATION        = Lagrange
INTERPOLATION_DEGREE = 7 
META_STOP


                                                                                   

2017-01-01T08:24:10.000   2.501707543162178e+04  -3.393643604834470e+04  -3.450387168551707e-01   2.475134645325068e+00   1.824574037212116e+00  -5.440986840334781e-05
2017-01-01T08:24:20.000   2.504182012247680e+04  -3.391818128493827e+04  -3.455829622796152e-01   2.473803397978081e+00   1.826378549851144e+00  -5.443921368356623e-05
2017-01-01T08:24:30.000   2.506655149425398e+04  -3.389990848128020e+04  -3.461275010117089e-01   2.472470834830019e+00   1.828182090985728e+00  -5.446853003339393e-05
2017-01-01T08:24:40.000   2.509126953408060e+04  -3.388161764688316e+04  -3.466723327681021e-01   2.471136956574818e+00   1.829984659676857e+00  -5.449781740774492e-05
2017-01-01T08:24:50.000   2.511597422878140e+04  -3.386330879149593e+04  -3.472174572582226e-01   2.469801763923631e+00   1.831786254963464e+00  -5.452707576116517e-05
2017-01-01T08:25:00.000   2.514066556520589e+04  -3.384498192486435e+04  -3.477628741914212e-01   2.468465257587396e+00   1.833586875886282e+00  -5.455630504823477e-05
2017-01-01T08:25:10.000   2.516534353015513e+04  -3.382663705678456e+04  -3.483085832753790e-01   2.467127438280720e+00   1.835386521482518e+00  -5.458550522347635e-05
2017-01-01T08:25:20.000   2.519000811040257e+04  -3.380827419708969e+04  -3.488545842165211e-01   2.465788306720909e+00   1.837185190787361e+00  -5.461467624139334e-05
2017-01-01T08:25:30.000   2.521465929271781e+04  -3.378989335563049e+04  -3.494008767205789e-01   2.464447863626554e+00   1.838982882835719e+00  -5.464381805648469e-05
2017-01-01T08:25:40.000   2.523929706387551e+04  -3.377149454226888e+04  -3.499474604927834e-01   2.463106109717061e+00   1.840779596662877e+00  -5.467293062326024e-05
2017-01-01T08:25:50.000   2.526392141074410e+04  -3.375307776681264e+04  -3.504943352398114e-01   2.461763045707892e+00   1.842575331310950e+00  -5.470201389633315e-05
2017-01-01T08:26:00.000   2.528853232022635e+04  -3.373464303905866e+04  -3.510415006684945e-01   2.460418672313709e+00   1.844370085824564e+00  -5.473106783036203e-05
2017-01-01T08:26:10.000   2.531312977925961e+04  -3.371619036879297e+04  -3.515889564858168e-01   2.459072990248389e+00   1.846163859250862e+00  -5.476009238004678e-05
2017-01-01T08:26:20.000   2.533771377487384e+04  -3.369771976574615e+04  -3.521367024002298e-01   2.457726000221763e+00   1.847956650643746e+00  -5.478908750020944e-05
2017-01-01T08:26:30.000   2.536228429410411e+04  -3.367923123965978e+04  -3.526847381196890e-01   2.456377702944461e+00   1.849748459057491e+00  -5.481805314567839e-05
2017-01-01T08:26:40.000   2.538684132398187e+04  -3.366072480029325e+04  -3.532330633514518e-01   2.455028099128418e+00   1.851539283546104e+00  -5.484698927128304e-05
2017-01-01T08:26:50.000   2.541138485150955e+04  -3.364220045744102e+04  -3.537816778015507e-01   2.453677189488128e+00   1.853329123161480e+00  -5.487589583181023e-05
2017-01-01T08:27:00.000   2.543591486364209e+04  -3.362365822094891e+04  -3.543305811743334e-01   2.452324974741826e+00   1.855117976952050e+00  -5.490477278199634e-05
2017-01-01T08:27:10.000   2.546043134735859e+04  -3.360509810065881e+04  -3.548797731740853e-01   2.450971455607464e+00   1.856905843968008e+00  -5.493362007660662e-05
2017-01-01T08:27:20.000   2.548493428934061e+04  -3.358652010665519e+04  -3.554292534977650e-01   2.449616632820682e+00   1.858692723237852e+00  -5.496243767007056e-05
2017-01-01T08:27:30.000   2.550942367636241e+04  -3.356792424896685e+04  -3.559790218438024e-01   2.448260507113067e+00   1.860478613796835e+00  -5.499122551692724e-05
2017-01-01T08:27:40.000   2.553389949514560e+04  -3.354931053767766e+04  -3.565290779088293e-01   2.446903079220215e+00   1.862263514676378e+00  -5.501998357165912e-05
2017-01-01T08:27:50.000   2.555836173292242e+04  -3.353067898249856e+04  -3.570794214003298e-01   2.445544349850535e+00   1.864047424945136e+00  -5.504871178934335e-05
2017-01-01T08:28:00.000   2.558281037687377e+04  -3.351202959319425e+04  -3.576300520240251e-01   2.444184319716348e+00   1.865830343668024e+00  -5.507741012500152e-05
2017-01-01T08:28:10.000   2.560724541425692e+04  -3.349336237948689e+04  -3.581809694867275e-01   2.442822989526881e+00   1.867612269915522e+00  -5.510607853374718e-05
2017-01-01T08:28:20.000   2.563166683208705e+04  -3.347467735129535e+04  -3.587321734892440e-01   2.441460360005701e+00   1.869393202740460e+00  -5.513471697041666e-05
2017-01-01T08:28:30.000   2.565607461737419e+04  -3.345597451855823e+04  -3.592836637316341e-01   2.440096431877818e+00   1.871173141195293e+00  -5.516332538984366e-05
2017-01-01T08:28:40.000   2.568046875712246e+04  -3.343725389123288e+04  -3.598354399132243e-01   2.438731205869609e+00   1.872952084332043e+00  -5.519190374685834e-05
2017-01-01T08:28:50.000   2.570484923809738e+04  -3.341851547947781e+04  -3.603875017272664e-01   2.437364682722119e+00   1.874730031185333e+00  -5.522045199601700e-05
2017-01-01T08:29:00.000   2.572921604714000e+04  -3.339975929340788e+04  -3.609398488681193e-01   2.435996863173219e+00   1.876506980795299e+00  -5.524897009196700e-05
2017-01-01T08:29:10.000   2.575356917104295e+04  -3.338098534319051e+04  -3.614924810284239e-01   2.434627747964602e+00   1.878282932198540e+00  -5.527745798930359e-05
2017-01-01T08:29:20.000   2.577790859710010e+04  -3.336219363862203e+04  -3.620453979115727e-01   2.433257337810905e+00   1.880057884468216e+00  -5.530591564320553e-05
2017-01-01T08:29:30.000   2.580223431255679e+04  -3.334338418955113e+04  -3.625985992192444e-01   2.431885633430586e+00   1.881831836673938e+00  -5.533434300880009e-05
2017-01-01T08:29:40.000   2.582654630473436e+04  -3.332455700578339e+04  -3.631520846542161e-01   2.430512635538956e+00   1.883604787890870e+00  -5.536274004130559e-05
2017-01-01T08:29:50.000   2.585084456071339e+04  -3.330571209732270e+04  -3.637058539132351e-01   2.429138344865793e+00   1.885376737176615e+00  -5.539110669567111e-05
2017-01-01T08:30:00.000   2.587512906756944e+04  -3.328684947419274e+04  -3.642599066923005e-01   2.427762762142312e+00   1.887147683588411e+00  -5.541944292684208e-05
2017-01-01T08:30:10.000   2.589939981237231e+04  -3.326796914643596e+04  -3.648142426866787e-01   2.426385888101103e+00   1.888917626183075e+00  -5.544774868976302e-05
2017-01-01T08:30:20.000   2.592365678195445e+04  -3.324907112429752e+04  -3.653688615855361e-01   2.425007723489538e+00   1.890686564000119e+00  -5.547602393909682e-05
2017-01-01T08:30:30.000   2.594789996322363e+04  -3.323015541797848e+04  -3.659237630791547e-01   2.423628269051774e+00   1.892454496084545e+00  -5.550426862960008e-05
2017-01-01T08:30:40.000   2.597212934303720e+04  -3.321122203773457e+04  -3.664789468560402e-01   2.422247525535954e+00   1.894221421477680e+00  -5.553248271597270e-05
2017-01-01T08:30:50.000   2.599634490875804e+04  -3.319227099344182e+04  -3.670344126156592e-01   2.420865493662534e+00   1.895987339257718e+00  -5.556066615351783e-05
2017-01-01T08:31:00.000   2.602054664769711e+04  -3.317330229503188e+04  -3.675901600556731e-01   2.419482174156022e+00   1.897752248499067e+00  -5.558881889748011e-05
2017-01-01T08:31:10.000   2.604473454725750e+04  -3.315431595237977e+04  -3.681461888752308e-01   2.418097567736802e+00   1.899516148282853e+00  -5.561694090321799e-05
2017-01-01T08:31:20.000   2.606890859454661e+04  -3.313531197560507e+04  -3.687024987661212e-01   2.416711675143091e+00   1.901279037668641e+00  -5.564503212573905e-05
2017-01-01T08:31:30.000   2.609306877669649e+04  -3.311629037482375e+04  -3.692590894200706e-01   2.415324497112846e+00   1.903040915717793e+00  -5.567309252008633e-05
2017-01-01T08:31:40.000   2.611721508078989e+04  -3.309725116020527e+04  -3.698159605270600e-01   2.413936034387920e+00   1.904801781488078e+00  -5.570112204124756e-05
2017-01-01T08:31:50.000   2.614134749388974e+04  -3.307819434195148e+04  -3.703731117759608e-01   2.412546287712531e+00   1.906561634035819e+00  -5.572912064420290e-05
2017-01-01T08:32:00.000   2.616546600305189e+04  -3.305911993028491e+04  -3.709305428548639e-01   2.411155257832408e+00   1.908320472416821e+00  -5.575708828392653e-05
2017-01-01T08:32:10.000   2.618957059535394e+04  -3.304002793542598e+04  -3.714882534517449e-01   2.409762945493127e+00   1.910078295688481e+00  -5.578502491542460e-05
2017-01-01T08:32:20.000   2.621366125790961e+04  -3.302091836758334e+04  -3.720462432547613e-01   2.408369351439404e+00   1.911835102910827e+00  -5.581293049374052e-05
2017-01-01T08:32:30.000   2.623773797789608e+04  -3.300179123693015e+04  -3.726045119529286e-01   2.406974476413363e+00   1.913590893148515e+00  -5.584080497399787e-05
2017-01-01T08:32:40.000   2.626180074248130e+04  -3.298264655366258e+04  -3.731630592344168e-01   2.405578321158818e+00   1.915345665465531e+00  -5.586864831131255e-05
2017-01-01T08:32:50.000   2.628584953913965e+04  -3.296348432774601e+04  -3.737218847939376e-01   2.404180886402740e+00   1.917099418948205e+00  -5.589646046116848e-05
2017-01-01T08:33:00.000   2.630988435526910e+04  -3.294430456922217e+04  -3.742809883237988e-01   2.402782172877682e+00   1.918852152677300e+00  -5.592424137896415e-05
2017-01-01T08:33:10.000   2.633390517833606e+04  -3.292510728809341e+04  -3.748403695172818e-01   2.401382181313312e+00   1.920603865738565e+00  -5.595199102018403e-05
